ONEWEB-0509             
1 54127U 22138Q   23337.45908245  .00000344  00000+0  82622-3 0  9993
2 54127  87.9175 129.4323 0001441  95.0951 265.0346 13.19729014 54575
ONEWEB-0510             
1 54128U 22138R   23337.39919363  .00000044  00000+0  75497-4 0  9990
2 54128  87.9242  98.9024 0001598 120.6907 239.4384 13.20773991 56943
ONEWEB-0511             
1 54129U 22138S   23337.45594850  .00000464  00000+0  11263-2 0  9993
2 54129  87.9178 129.4334 0001451  71.2158 288.9132 13.19723800 54606
ONEWEB-0512             
1 54130U 22138T   23337.44802503  .00000093  00000+0  20001-3 0  9990
2 54130  87.9187 129.4356 0000937  94.0001 266.1239 13.19728300 54572
ONEWEB-0513             
1 54131U 22138U   23337.49464087 -.00000058  00000+0 -17759-3 0  9996
2 54131  87.9177 129.4280 0000932  67.9572 292.1660 13.19726241 54462
ONEWEB-0514             
1 54132U 22138V   23337.46381990  .00000037  00000+0  59338-4 0  9990
2 54132  87.9183 129.4356 0001545  93.9631 266.1679 13.19724895 54598
ONEWEB-0515             
1 54133U 22138W   23337.38656328  .00000103  00000+0  22233-3 0  9999
2 54133  87.9189  98.9036 0002657 117.3888 242.7516 13.20773458 56964
ONEWEB-0516             
1 54134U 22138X   23337.51437585  .00000036  00000+0  58614-4 0  9995
2 54134  87.9188 129.4225 0001398  98.6617 261.4674 13.19725786 54607
